BEIDOU-2 IGSO-1 (C06)   
1 36828U 10036A   24285.63723772 -.00000114  00000+0  00000+0 0  9990
2 36828  54.2542 168.5167 0040838 203.3275 342.3592  1.00248585 52053
BEIDOU-2 G4 (C04)       
1 37210U 10057A   24292.46605382 -.00000112  00000+0  00000+0 0  9992
2 37210   2.1413  69.8610 0008858 169.6816 115.7364  1.00269888 51209
BEIDOU-2 IGSO-2 (C07)   
1 37256U 10068A   24290.83767870 -.00000207  00000+0  00000+0 0  9999
2 37256  48.6584 279.3328 0039813 218.1905 297.3482  1.00263460 50691
BEIDOU-2 IGSO-3 (C08)   
1 37384U 11013A   24289.77720606 -.00000192  00000+0  00000+0 0  9992
2 37384  61.5353  45.9541 0032448 176.7761 189.7733  1.00277950 49556
BEIDOU-2 IGSO-4 (C09)   
1 37763U 11038A   24291.64357168 -.00000033  00000+0  00000+0 0  9992
2 37763  54.5598 171.0991 0129267 228.8687 314.0773  1.00282076 48553
BEIDOU-2 IGSO-5 (C10)   
1 37948U 11073A   24291.92997740 -.00000171  00000+0  00000+0 0  9996
2 37948  48.7908 279.0133 0102579 221.9322 316.3607  1.00264480 47315
BEIDOU-2 G5 (C05)       
1 38091U 12008A   24292.13710028  .00000058  00000+0  00000+0 0  9994
2 38091   2.0602  70.6634 0008736 218.0854 206.5079  1.00267231 46394
BEIDOU-2 M3 (C11)       
1 38250U 12018A   24290.82122616 -.00000054  00000+0  00000+0 0  9993
2 38250  56.2523 325.2896 0025252 263.5350  96.2393  1.86233413 84968
BEIDOU-2 M4 (C12)       
1 38251U 12018B   24292.36224447 -.00000065  00000+0  00000+0 0  9992
2 38251  56.1570 324.5004 0016163 264.4413  95.4290  1.86231836 84991
BEIDOU-2 M6 (C14)       
1 38775U 12050B   24290.99788441  .00000015  00000+0  00000+0 0  9999
2 38775  56.0143  83.0948 0010528 347.2457  12.7270  1.86230937 82335
BEIDOU-2 G6 (C02)       
1 38953U 12059A   24291.85616806 -.00000175  00000+0  00000+0 0  9995
2 38953   2.8697  79.4792 0006261 299.7843  39.8637  1.00272480 43958
BEIDOU-3S IGSO-1S (C31) 
1 40549U 15019A   24291.50117469 -.00000177  00000+0  00000+0 0  9993
2 40549  50.3458 302.7415 0036405 198.4879 162.6145  1.00277529 34976
BEIDOU-3S M2S (C58)     
1 40748U 15037A   24291.48842715 -.00000059  00000+0  00000+0 0  9999
2 40748  55.3860 322.8735 0013136 253.4250 106.4865  1.86228985 62802
BEIDOU-3S M1S (C57)     
1 40749U 15037B   24292.29831621 -.00000064  00000+0  00000+0 0  9990
2 40749  55.3881 322.8323 0003658 314.7456  45.2770  1.86227455 62813
BEIDOU-3S IGSO-2S (C56) 
1 40938U 15053A   24291.40083944 -.00000159  00000+0  00000+0 0  9992
2 40938  50.1723 265.9734 0052766 189.9006 171.4207  1.00277978 33255
BEIDOU-2 IGSO-6 (C13)   
1 41434U 16021A   24291.78675060 -.00000174  00000+0  00000+0 0  9994
2 41434  59.3649  44.1204 0053853 222.8376 138.0552  1.00290232 31392
BEIDOU-2 G7 (C03)       
1 41586U 16037A   24291.86138088 -.00000354  00000+0  00000+0 0  9992
2 41586   1.6709  66.4391 0006763 349.6498  31.4149  1.00273159   801
BEIDOU-3 M1 (C19)       
1 43001U 17069A   24289.15293664  .00000038  00000+0  00000+0 0  9991
2 43001  56.1626  83.2687 0007105 303.5243  56.4202  1.86231100 47241
BEIDOU-3 M2 (C20)       
1 43002U 17069B   24290.16435773  .00000026  00000+0  00000+0 0  9991
2 43002  56.1629  83.2709 0005308 341.1980  18.7879  1.86230854 47256
BEIDOU-3 M7 (C27)       
1 43107U 18003A   24289.91242070 -.00000049  00000+0  00000+0 0  9999
2 43107  54.8457 323.4652 0002254  79.1734 280.9137  1.86232310 46005
BEIDOU-3 M8 (C28)       
1 43108U 18003B   24289.31691028 -.00000045  00000+0  00000+0 0  9991
2 43108  54.8391 323.4708 0005124 257.0334 102.9726  1.86230776 46008
BEIDOU-3 M4 (C22)       
1 43207U 18018A   24291.90579353  .00000005  00000+0  00000+0 0  9996
2 43207  56.1239  83.2617 0004366  29.9329 330.0861  1.86231024 45438
BEIDOU-3 M3 (C21)       
1 43208U 18018B   24291.43547447  .00000010  00000+0  00000+0 0  9990
2 43208  56.1232  83.2817 0004919 323.2603  36.7029  1.86231057 45424
BEIDOU-3 M9 (C29)       
1 43245U 18029A   24292.19261764 -.00000063  00000+0  00000+0 0  9991
2 43245  54.7233 321.0819 0002366 248.6182 111.4065  1.86232359 44595
BEIDOU-3 M10 (C30)      
1 43246U 18029B   24292.12211067 -.00000063  00000+0  00000+0 0  9996
2 43246  54.7209 321.1121 0003091 342.6574  17.3825  1.86232768 44583
BEIDOU-2 IGSO-7 (C16)   
1 43539U 18057A   24291.57597872 -.00000094  00000+0  00000+0 0  9995
2 43539  55.1470 168.3231 0078075 232.7950 306.1649  1.00274204 23034
BEIDOU-3 M5 (C23)       
1 43581U 18062A   24291.27308150  .00000020  00000+0  00000+0 0  9992
2 43581  54.1188 202.9795 0003300 304.2631  55.7424  1.86228487 42312
BEIDOU-3 M6 (C24)       
1 43582U 18062B   24292.21220832  .00000024  00000+0  00000+0 0  9992
2 43582  54.1183 202.9369 0006075  24.9840 335.0880  1.86229616 42332
BEIDOU-3 M12 (C26)      
1 43602U 18067A   24292.14563609  .00000025  00000+0  00000+0 0  9995
2 43602  54.2097 201.6319 0008046  28.1701 331.9186  1.86227575 41811
BEIDOU-3 M11 (C25)      
1 43603U 18067B   24291.20508991  .00000021  00000+0  00000+0 0  9991
2 43603  54.2070 201.6286 0004738  19.1755 340.8818  1.86227078 41829
BEIDOU-3 M13 (C32)      
1 43622U 18072A   24292.24037582  .00000001  00000+0  00000+0 0  9994
2 43622  56.0958  82.7784 0003964 298.9588  60.9933  1.86231110 41355
BEIDOU-3 M14 (C33)      
1 43623U 18072B   24291.03194126  .00000014  00000+0  00000+0 0  9993
2 43623  56.0965  82.8120 0002390   0.9068 359.0926  1.86231115 41321
BEIDOU-3 M16 (C35)      
1 43647U 18078A   24292.26788989 -.00000064  00000+0  00000+0 0  9993
2 43647  54.6198 321.1679 0006067   8.4949 351.5652  1.86232120 40861
BEIDOU-3 M15 (C34)      
1 43648U 18078B   24292.39701319 -.00000065  00000+0  00000+0 0  9991
2 43648  54.6155 321.1658 0002723   5.8308 354.2215  1.86232096 40886
BEIDOU-3 G1 (C59)       
1 43683U 18085A   24291.93875231 -.00000276  00000+0  00000+0 0  9996
2 43683   2.4908 105.1140 0002123  42.8764 356.9809  1.00271422 21967
BEIDOU-3 M17 (C36)      
1 43706U 18093A   24289.86425392  .00000009  00000+0  00000+0 0  9992
2 43706  54.2021 202.9748 0008259 292.0027  67.9378  1.86228126 40194
BEIDOU-3 M18 (C37)      
1 43707U 18093B   24289.72860904  .00000008  00000+0  00000+0 0  9999
2 43707  54.2029 202.9712 0007170 325.0068  34.9736  1.86229684 40188
BEIDOU-3 IGSO-1 (C38)   
1 44204U 19023A   24291.72002645 -.00000232  00000+0  00000+0 0  9999
2 44204  57.8271  43.9474 0024638 207.5456 153.2908  1.00264179  1121
BEIDOU-2 G8 (C01)       
1 44231U 19027A   24292.15412883 -.00000248  00000+0  00000+0 0  9997
2 44231   1.7791  74.5092 0004282 187.7753 324.8594  1.00268493 19987
BEIDOU-3 IGSO-2 (C39)   
1 44337U 19035A   24292.43289056 -.00000090  00000+0  00000+0 0  9993
2 44337  55.1821 164.1897 0034753 201.7069 295.2569  1.00258513 19618
BEIDOU-3 M24 (C46)      
1 44542U 19061A   24289.79849419  .00000008  00000+0  00000+0 0  9998
2 44542  54.4298 203.2872 0008678   2.1774 357.8534  1.86229305 34443
BEIDOU-3 M23 (C45)      
1 44543U 19061B   24292.38373344  .00000024  00000+0  00000+0 0  9995
2 44543  54.4279 203.1686 0005521 353.0210 212.8530  1.86229376 34480
BEIDOU-3 IGSO-3 (C40)   
1 44709U 19073A   24291.39430028 -.00000185  00000+0  00000+0 0  9994
2 44709  55.8451 287.4282 0041015 191.1609 168.7162  1.00265155 18347
BEIDOU-3 M22 (C44)      
1 44793U 19078A   24292.32806604 -.00000064  00000+0  00000+0 0  9999
2 44793  54.4673 321.0828 0004686  13.8127 346.2493  1.86231993 33355
BEIDOU-3 M21 (C43)      
1 44794U 19078B   24290.84671056 -.00000054  00000+0  00000+0 0  9995
2 44794  54.4420 321.1078 0002875 355.2658   4.7874  1.86232457 33326
BEIDOU-3 M19 (C41)      
1 44864U 19090A   24291.91718032  .00000004  00000+0  00000+0 0  9996
2 44864  56.0299  82.9533 0015549 279.3315 270.7028  1.86231368 32923
BEIDOU-3 M20 (C42)      
1 44865U 19090B   24291.27917302  .00000011  00000+0  00000+0 0  9995
2 44865  56.0311  83.0083 0012991 294.0983 277.8836  1.86231308 32899
BEIDOU-3 G2 (C60)       
1 45344U 20017A   24292.14127053 -.00000142  00000+0  00000+0 0  9998
2 45344   2.4813  33.9415 0004105 198.6687 285.4294  1.00271619 17188
BEIDOU-3 G3 (C61)       
1 45807U 20040A   24292.07567583 -.00000354  00000+0  00000+0 0  9991
2 45807   1.0111  53.8690 0002964 290.5011 180.4544  1.00266407 15996
BEIDOU-3 G4 (C62)       
1 56564U 23066A   24291.87119837 -.00000115  00000+0  00000+0 0  9991
2 56564   1.8221 288.7014 0005565 244.6873 327.1317  1.00272002  5303
BEIDOU-3 M28 (C50)      
1 58654U 23207A   24290.39262483  .00000020  00000+0  00000+0 0  9996
2 58654  55.2135  82.9360 0000877 204.9556 155.0443  1.86232016  5503
BEIDOU-3 M26 (C48)      
1 58655U 23207B   24290.72878800  .00000016  00000+0  00000+0 0  9995
2 58655  55.2157  82.9100 0002318 215.6483 144.3380  1.86231549  5499
